KINEIS-5E               
1 62083U 24219C   26086.48802338  .00000293  00000+0  53987-4 0  9994
2 62083  97.9358 247.7160 0005534 117.3564 242.8208 14.72335915 71748
KINEIS-5A               
1 62084U 24219D   26087.60930042  .00001132  00000+0  18715-3 0  9996
2 62084  97.9570 248.9562 0004922 145.6618 214.4908 14.72231827 71916
KINEIS-5B               
1 62085U 24219E   26087.56537751  .00001594  00000+0  22741-3 0  9998
2 62085  97.9978 251.9127 0002695 143.2175 216.9221 14.78137206 72094
KINEIS-2C               
1 62929U 25028B   26087.14437756  .00001253  00000+0  20610-3 0  9997
2 62929  98.0287 142.0783 0000619 136.6903 223.4353 14.72306821 60689
KINEIS-2D               
1 62930U 25028C   26087.55911839  .00001805  00000+0  27302-3 0  9991
2 62930  97.9373 141.5413 0004746 103.1274 257.0465 14.75414906 60824
KINEIS-2E               
1 62931U 25028D   26087.60175083  .00001599  00000+0  23521-3 0  9990
2 62931  97.9043 140.9320 0002016  93.4954 266.6487 14.76777311 60882
KINEIS-2A               
1 62932U 25028E   26087.58328774  .00001201  00000+0  19861-3 0  9997
2 62932  98.0927 142.9868 0001465 140.0949 220.0366 14.72151434 60748
KINEIS-2B               
1 62934U 25028G   26087.59088912  .00001409  00000+0  22613-3 0  9996
2 62934  97.9755 141.8957 0004595  65.3491 294.8195 14.73171272 60799
KINEIS-4E               
1 63300U 25056A   26086.83240197  .00000702  00000+0  11885-3 0  9990
2 63300  97.9728 212.8182 0001355 143.5789 216.5511 14.72273762 55159
KINEIS-4C               
1 63301U 25056B   26086.91254573 -.00000310  00000+0 -41378-4 0  9991
2 63301  97.9794 213.0752 0001892 158.4621 201.6666 14.72306595 55174
KINEIS-4D               
1 63302U 25056C   26087.12125447  .00001818  00000+0  29522-3 0  9991
2 63302  97.9779 213.2545 0001824 176.3612 183.7609 14.72322480 55206
KINEIS-4A               
1 63303U 25056D   26086.40653617 -.00000350  00000+0 -47649-4 0  9990
2 63303  97.9809 212.4867 0002702 176.5520 183.5707 14.72349551 55097
KINEIS-4B               
1 63304U 25056E   26086.32185567 -.00000402  00000+0 -55872-4 0  9991
2 63304  97.9812 212.4468 0004133 147.7098 212.4363 14.72335248 55075
